stk.v.4.3 

BEGIN Ephemeris 
 
NumberOfEphemerisPoints		146 
ScenarioEpoch	    2 Jan 2020 12:52:50.543052256 
InterpolationMethod		Lagrange 
InterpolationOrder		5 
CentralBody				Earth 
CoordinateSystem			TEME 
CoordinateSystemEpoch	  2 Jan 2020 12:52:50.543052256 
DistanceUnit			Kilometers 
 
EphemerisTimePosVel 
 
       0.00000000   -6892.73074355   -1936.02088881       0.03701694  0.135251305 -0.448602522  7.448124563
 END Ephemeris 
